CSS (TIANHE-1)
1 48274U 21035A   25171.20390120  .00023911  00000-0  30087-3 0  9996
2 48274  41.4651   2.3498 0004094 146.4464 213.6634 15.59083290236626
FENGYUN-4B
1 48808U 21047A   25170.92119205 -.00000319  00000-0  00000-0 0  9990
2 48808   0.0168 357.8996 0002452 329.6547  17.2041  1.00269200 14944
TUBIN
1 48900U 21059X   25171.17281022  .00031433  00000-0  36929-3 0  9993
2 48900  97.6754 341.2677 0003955 180.2631 179.8624 15.61403600221697
LEDSAT
1 49069U 21073D   25171.20107535  .00061683  00000-0  69965-3 0  9992
2 49069  97.3884 253.1924 0008069  45.7855 314.4064 15.62143374213095
CUTE-LASP
1 49263U 21088D   25170.90075487  .00010862  00000-0  21431-3 0  9999
2 49263  97.4505 247.4568 0008079 193.0025 167.1017 15.47327863206025
JILIN-01 GAOFEN 2F
1 49338U 21097A   25171.16066928  .00003692  24382-8  26681-3 0  9993
2 49338  97.6297 295.2829 0020313  21.2708 338.9357 15.03949932197498
TEIKYOSAT-4 (OORURI)
1 49396U 21102B   25171.17029509  .00001736  00000-0  11752-3 0  9992
2 49396  97.4095 209.2163 0014228  97.0170 263.2677 15.07684681198143
Z-SAT
1 49399U 21102E   25171.19029541  .00003837  00000-0  21101-3 0  9996
2 49399  97.3794 212.3967 0019631  69.9352 290.3990 15.14495225198580
KOSEN-1
1 49402U 21102H   25171.06971426  .00005783  00000-0  26733-3 0  9993
2 49402  97.3701 215.7743 0016855  47.6461 312.6198 15.20424156198884
CAMSAT XW-3 (CAS-9)
1 50466U 21131B   25171.24708322  .00000375  00000-0  13096-3 0  9990
2 50466  98.5105 260.5476 0005452 103.1349 257.0448 14.40826476182988
SICH-2-1 (SICH-2-30)
1 51030U 22002AY  25171.14943881  .00063849  00000-0  59939-3 0  9997
2 51030  97.3334 248.3459 0004899 143.1078 217.0520 15.66964995191186
VZLUSAT-2
1 51085U 22002DF  25171.14132003  .00038324  00000-0  51253-3 0  9994
2 51085  97.3321 244.3295 0006801 152.7773 207.3841 15.57916704190923
INSPIRESAT-1
1 51657U 22013B   25170.35018930  .00023932  00000-0  49440-3 0  9999
2 51657  97.4889 200.2196 0003982 305.2587  54.8289 15.45830466185892
GOES-18
1 51850U 22021A   25171.14811451  .00000108  00000-0  00000+0 0  9995
2 51850   0.0436 162.6064 0000319  30.6068 351.7112  1.00271543 12179
MERIDIAN-10
1 52145U 22030A   25170.57111144  .00000298  00000-0  00000-0 0  9992
2 52145  62.6605 178.9772 6744754 273.3896  17.7766  2.00601779 23753
BRO-7
1 52174U 22033T   25162.76230045  .11393183  24806-5  44250-3 0  9994
2 52174  97.2708 262.3985 0016745 266.7450  93.1935 16.42172300179386
BRO-6
1 52422U 22047AE  25171.22161170  .00007294  00000-0  21000-3 0  9994
2 52422  97.3644 254.5118 0003741 303.4222  56.6664 15.36056418175372
CONNECTA-T1
1 52739U 22057H   25170.80002793  .00030441  00000-0  47063-3 0  9991
2 52739  97.6115 311.1415 0003553 288.0912  71.9953 15.54038834170710
PLATFORM-1
1 52770U 22057AQ  25170.81289136  .00098076  00000-0  89848-3 0  9990
2 52770  97.6053 315.8410 0004819 246.6085 113.4668 15.67454022171068
STEP CUBELAB-II
1 52897U 22065D   25171.16382521  .00000682  00000-0  14415-3 0  9994
2 52897  98.1724 312.5410 0010040  81.6370 278.5969 14.62385344158572
RANDEV
1 52898U 22065E   25171.11567534  .00000758  00000-0  15815-3 0  9998
2 52898  98.1713 312.6979 0009353  83.0042 277.2223 14.62702587158301
SNUGLITE-II
1 52899U 22065F   25170.81593660  .00000878  00000-0  17952-3 0  9991
2 52899  98.1701 312.6902 0008921  83.7003 276.5215 14.63236174157980
MIMAN
1 52900U 22065G   25170.33465558  .00000560  00000-0  12320-3 0  9997
2 52900  98.1745 310.9544 0008987  82.8454 277.3768 14.61179817157447
GREENCUBE (IO-117)
1 53106U 22080B   25051.21822557 -.00000003  00000-0  00000 0 0  9995
2 53106  70.1434 106.3440 0008542  48.0089 312.1297  6.42557744 61200
ROBUSTA 1F (MTCUBE-2)
1 53109U 22080E   25170.24023449 -.00000003  00000-0  00000-0 0  9997
2 53109  70.1415  64.4606 0008704   7.5912 352.4878  6.42583731 68748
BLUEWALKER-3
1 53807U 22111AL  25170.30666470  .00004522  00000-0  15040-3 0  9993
2 53807  53.2320 291.0723 0008401 130.5190 229.6546 15.33184509154447
ELEKTRO-L4
1 55506U 23016A   25170.79440538 -.00000047  00000-0  00000-0 0  9990
2 55506   0.0936  92.7616 0000880  75.7951 191.4491  1.00273638  8694
SHARJAHSAT-1
1 55104U 23001CZ  25170.97040977  .00008631  00000-0  25697-3 0  9999
2 55104  97.3703 232.5611 0006831 343.1616  16.9399 15.34927111136694
METEOR M2-3
1 57166U 23091A   25171.17218214 -.00000007  00000-0  16162-4 0  9990
2 57166  98.6605 227.5071 0004827 131.9889 228.1701 14.24001761102993
STRATOSAT-TK1 (RS52S)
1 57167U 23091B   25171.16631608  .00030213  00000-0  73396-3 0  9998
2 57167  97.5523 235.0058 0006935 261.9962  98.0497 15.40932673109647
RESHUCUBE-2 (RS37S)
1 57168U 23091C   25171.16998348  .00005933  00000-0  28835-3 0  9995
2 57168  97.5555 227.8040 0011827 295.7232  64.2781 15.18757371109178
RASSVET 1-1
1 57169U 23091D   25171.21702679  .00005386  00000-0  27311-3 0  9992
2 57169  97.5615 227.7420 0010019 285.3910  74.6216 15.17331682109155
RASSVET 1-2
1 57170U 23091E   25171.21720500  .00005407  00000-0  27423-3 0  9995
2 57170  97.5620 227.7938 0008782 275.3637  84.6594 15.17332728109158
RASSVET 1-3
1 57171U 23091F   25171.21678540  .00005322  00000-0  26983-3 0  9998
2 57171  97.5617 227.7622 0010954 297.3936  62.6182 15.17333119109159
UMKA-1 (RS40S)
1 57172U 23091G   25171.17168896  .00004554  00000-0  24389-3 0  9996
2 57172  97.5575 226.4986 0012835 300.7278  59.2689 15.15462565109082
SATURN (RS43S)
1 57174U 23091J   25171.18500362  .00002378  00000-0  14789-3 0  9992
2 57174  97.5582 224.1075 0013046 319.6192  40.4068 15.10545092108922
CUBEBEL-2 (EU11S)
1 57175U 23091K   25171.17356272  .00007608  00000-0  36097-3 0  9998
2 57175  97.5574 227.7114 0010607 309.1282  50.9009 15.19510957109160
SITRO-AIS-5 (ANOKHIN)
1 57176U 23091L   25171.22084614  .00006812  00000-0  31943-3 0  9994
2 57176  97.5579 228.1884 0012337 294.8694  65.1257 15.19940200109198
ZORKIY-2M
1 57177U 23091M   25171.17581572  .00004298  00000-0  23239-3 0  9999
2 57177  97.5611 226.6937 0013508 296.3831  63.6014 15.15143431109088
CUBESX-HSE-3 (RS42S)
1 57178U 23091N   25171.18092203  .00007640  00000-0  34785-3 0  9991
2 57178  97.5605 228.9601 0011841 286.6075  73.3860 15.20922531109220
PHI-DEMO
1 57181U 23091R   25171.18656727  .00002315  00000-0  14096-3 0  9999
2 57181  97.5588 224.5555 0014870 309.1418  50.8489 15.11320758108950
MONITOR-3 (RS58S)
1 57180U 23091Q   25171.15374166  .00006439  00000-0  30821-3 0  9994
2 57180  97.5601 228.1714 0012452 289.7469  70.2422 15.19246950109172
NORBY-2
1 57179U 23091P   25171.17915875  .00003237  00000-0  18842-3 0  9994
2 57179  97.5620 225.5309 0014649 299.0830  60.8934 15.12674697108996
MONITOR-4 (RS57S)
1 57182U 23091S   25171.14982484  .00006220  00000-0  29744-3 0  9993
2 57182  97.5595 228.1255 0012480 290.3698  69.6195 15.19294955109176
MONITOR-2 (RS39S)
1 57184U 23091U   25171.17948942  .00003749  00000-0  20721-3 0  9998
2 57184  97.5602 226.7680 0010789 290.4043  69.6030 15.14471499109081
SVYATOBOR-1 (RS60S)
1 57187U 23091X   25171.18905525  .00005827  00000-0  28082-3 0  9999
2 57187  97.5605 228.9113 0009432 279.9788  80.0381 15.19085598109221
VIZARD-METEO (RS38S)
1 57189U 23091Z   25171.17079294  .00008888  00000-0  37265-3 0  9998
2 57189  97.5593 230.8504 0007878 269.7470  90.2864 15.23718317109352
NANOZOND-1 (RS49S)
1 57190U 23091AA  25171.20437448  .00020528  00000-0  58353-3 0  9999
2 57190  97.5547 234.9875 0005186 253.4004 106.6670 15.36181241109645
SITRO-AIS-6 (CHIRKIN)
1 57192U 23091AC  25171.14304531  .00006505  00000-0  30604-3 0  9998
2 57192  97.5576 228.1189 0012294 294.9242  65.0714 15.19844434109181
SITRO-AIS-8 (SHCHUKIN)
1 57193U 23091AD  25171.17244557  .00008345  00000-0  37581-3 0  9998
2 57193  97.5573 228.6755 0011725 294.1859  65.8151 15.21268352109227
SITRO-AIS-7 (SHEFFER)
1 57194U 23091AE  25171.16528917  .00006394  00000-0  30179-3 0  9991
2 57194  97.5576 228.0787 0012152 295.6106  64.3872 15.19742202109183
AVION KALUGA 650
1 57195U 23091AF  25171.17138650  .00004422  00000-0  23784-3 0  9998
2 57195  97.5614 227.3540 0009976 290.2952  69.7207 15.15352305109117
SITRO-AIS-10 (KATYS)
1 57199U 23091AK  25171.19610507  .00009427  00000-0  38430-3 0  9994
2 57199  97.5586 231.0782 0007576 274.4748  85.5624 15.24652191109373
SITRO-AIS-9 (BURDAEV)
1 57201U 23091AM  25171.14950724  .00009105  00000-0  37341-3 0  9994
2 57201  97.5582 230.9415 0007545 274.9957  85.0419 15.24460454109362
UTMN-2 (RS27S)
1 57203U 23091AP  25171.15833968  .00007393  00000-0  32720-3 0  9990
2 57203  97.5594 230.0955 0008387 272.9783  87.0493 15.21935302109301
SITRO-AIS-12 (FARTUSHNY)
1 57204U 23091AQ  25171.19583104  .00009323  00000-0  37996-3 0  9994
2 57204  97.5592 231.2750 0007498 266.9660  93.0719 15.24663180109386
ARCCUBE-1 (RS25S)
1 57205U 23091AR  25171.13862192  .00038406  00000-0  77631-3 0  9990
2 57205  97.5457 237.1950 0004775 238.4218 121.6565 15.46368102109806
AHMAT-1 (RS41S)
1 57206U 23091AS  25171.20696064  .00014292  00000-0  47522-3 0  9995
2 57206  97.5550 233.3841 0005996 265.3524  94.7032 15.31270782109543
SITRO-AIS-11 (SMIRENNY)
1 57208U 23091AU  25171.14738821  .00009498  00000-0  38466-3 0  9997
2 57208  97.5589 231.3175 0007334 267.3511  92.6887 15.24869917109384
KUZGTU-1 (RS47S)
1 57217U 23091AV  25171.21157481  .00006511  00000-0  30229-3 0  9994
2 57217  97.5581 228.5307 0011883 288.9049  71.0897 15.20306988109214
STRATOSAT-TK1-A (RS45S)
1 57322U 23091AW  25171.17928786  .00181769  00000-0  13883-2 0  9995
2 57322  97.5440 240.6562 0007108 225.4144 134.6539 15.71609280107898
STRATOSAT-TK1-E (RS52SE)
1 57323U 23091AX  25171.16007923  .00019028  00000-0  58244-3 0  9995
2 57323  97.5552 233.0761 0008362 272.9061  87.1224 15.33842664107399
STRATOSAT-TK1-B (RS52SB)
1 57324U 23091AY  25171.17715087  .00171704  00000-0  13659-2 0  9994
2 57324  97.5453 240.5301 0007085 227.7487 132.3174 15.70661764107886
